{
    "links": {
        "self": "http://www.neowsapp.com/rest/v1/neo/3838044?api_key=iIulBulltgU6a56xZRHN4H3l9WmuAYTsLGpBGhQ2"
    },
    "id": "3838044",
    "neo_reference_id": "3838044",
    "name": "(2019 BZ3)",
    "designation": "2019 BZ3",
    "nasa_jpl_url": "http://ssd.jpl.nasa.gov/sbdb.cgi?sstr=3838044",
    "absolute_magnitude_h": 28.8,
    "estimated_diameter": {
        "kilometers": {
            "estimated_diameter_min": 0.0046190746,
            "estimated_diameter_max": 0.0103285648
        },
        "meters": {
            "estimated_diameter_min": 4.6190746028,
            "estimated_diameter_max": 10.328564805
        },
        "miles": {
            "estimated_diameter_min": 0.002870159,
            "estimated_diameter_max": 0.0064178706
        },
        "feet": {
            "estimated_diameter_min": 15.1544447199,
            "estimated_diameter_max": 33.886368555
        }
    },
    "is_potentially_hazardous_asteroid": false,
    "close_approach_data": [
        {
            "close_approach_date": "1927-11-18",
            "close_approach_date_full": "1927-Nov-18 00:46",
            "epoch_date_close_approach": -1329261240000,
            "relative_velocity": {
                "kilometers_per_second": "12.9228683453",
                "kilometers_per_hour": "46522.3260429983",
                "miles_per_hour": "28907.1642015508"
            },
            "miss_distance": {
                "astronomical": "0.2274455713",
                "lunar": "88.4763272357",
                "kilometers": "34025373.007413131",
                "miles": "21142386.4013219678"
            },
            "orbiting_body": "Earth"
        },
        {
            "close_approach_date": "2019-01-27",
            "close_approach_date_full": "2019-Jan-27 23:29",
            "epoch_date_close_approach": 1548631740000,
            "relative_velocity": {
                "kilometers_per_second": "11.3720696691",
                "kilometers_per_hour": "40939.4508089148",
                "miles_per_hour": "25438.182642906"
            },
            "miss_distance": {
                "astronomical": "0.0003217074",
                "lunar": "0.1251441786",
                "kilometers": "48126.741803238",
                "miles": "29904.5706631644"
            },
            "orbiting_body": "Earth"
        },
        {
            "close_approach_date": "2019-01-28",
            "close_approach_date_full": "2019-Jan-28 05:08",
            "epoch_date_close_approach": 1548652080000,
            "relative_velocity": {
                "kilometers_per_second": "11.3192752647",
                "kilometers_per_hour": "40749.3909528228",
                "miles_per_hour": "25320.086839547"
            },
            "miss_distance": {
                "astronomical": "0.0023422416",
                "lunar": "0.9111319824",
                "kilometers": "350394.354385392",
                "miles": "217724.9557747296"
            },
            "orbiting_body": "Moon"
        },
        {
            "close_approach_date": "2020-12-17",
            "close_approach_date_full": "2020-Dec-17 16:09",
            "epoch_date_close_approach": 1608221340000,
            "relative_velocity": {
                "kilometers_per_second": "3.7987147896",
                "kilometers_per_hour": "13675.3732426557",
                "miles_per_hour": "8497.3451129157"
            },
            "miss_distance": {
                "astronomical": "1.7954594899",
                "lunar": "698.4337415711",
                "kilometers": "268596915.360326513",
                "miles": "166898384.0240033594"
            },
            "orbiting_body": "Juptr"
        }
    ],
    "orbital_data": {
        "orbit_id": "3",
        "orbit_determination_date": "2019-02-07 07:05:24",
        "first_observation_date": "2019-01-28",
        "last_observation_date": "2019-02-05",
        "data_arc_in_days": 8,
        "observations_used": 28,
        "orbit_uncertainty": "7",
        "minimum_orbit_intersection": ".0022667",
        "jupiter_tisserand_invariant": "3.330",
        "epoch_osculation": "2459000.5",
        "eccentricity": ".5808179975781087",
        "semi_major_axis": "2.295220656182473",
        "inclination": "10.64346118376389",
        "ascending_node_longitude": "127.3583525110934",
        "orbital_period": "1270.091742590519",
        "perihelion_distance": ".9621151906586562",
        "perihelion_argument": "338.4258114542728",
        "aphelion_distance": "3.628326121706289",
        "perihelion_time": "2458494.640805327712",
        "mean_anomaly": "143.3827998208915",
        "mean_motion": ".2834440914210912",
        "equinox": "J2000",
        "orbit_class": {
            "orbit_class_type": "APO",
            "orbit_class_description": "Near-Earth asteroid orbits which cross the Earth’s orbit similar to that of 1862 Apollo",
            "orbit_class_range": "a (semi-major axis) > 1.0 AU; q (perihelion) < 1.017 AU"
        }
    },
    "is_sentry_object": false
}